[{"OBJECT_NAME":"STARLINK-3872","OBJECT_ID":"2022-049C","EPOCH":"2026-03-09T08:57:39.191328","MEAN_MOTION":15.08835537,"ECCENTRICITY":0.00015087,"INCLINATION":53.2179,"RA_OF_ASC_NODE":70.5438,"ARG_OF_PERICENTER":87.9049,"MEAN_ANOMALY":272.2116,"EPHEMERIS_TYPE":0,"CLASSIFICATION_TYPE":"U","NORAD_CAT_ID":52453,"ELEMENT_SET_NO":999,"REV_AT_EPOCH":21206,"BSTAR":4.045847e-5,"MEAN_MOTION_DOT":3.56e-6,"MEAN_MOTION_DDOT":0},{"OBJECT_NAME":"DISKSAT C","OBJECT_ID":"2025-305A","EPOCH":"2026-03-09T19:16:32.318976","MEAN_MOTION":15.07852977,"ECCENTRICITY":0.00045341,"INCLINATION":45.0017,"RA_OF_ASC_NODE":250.1278,"ARG_OF_PERICENTER":310.7706,"MEAN_ANOMALY":49.2776,"EPHEMERIS_TYPE":0,"CLASSIFICATION_TYPE":"U","NORAD_CAT_ID":67219,"ELEMENT_SET_NO":999,"REV_AT_EPOCH":1231,"BSTAR":0.00075564202,"MEAN_MOTION_DOT":0.00011541,"MEAN_MOTION_DDOT":0}]
